OBJECT_NAME,OBJECT_ID,EPOCH,MEAN_MOTION,ECCENTRICITY,INCLINATION,RA_OF_ASC_NODE,ARG_OF_PERICENTER,MEAN_ANOMALY,EPHEMERIS_TYPE,CLASSIFICATION_TYPE,NORAD_CAT_ID,ELEMENT_SET_NO,REV_AT_EPOCH,BSTAR,MEAN_MOTION_DOT,MEAN_MOTION_DDOT
SIRION PATHFINDER-2,2018-099B,2026-06-10T01:06:35.641440,15.14486025,.00077161,97.4257,210.2733,334.0857,25.9987,0,U,43759,999,41154,.21131784E-3,.3826E-4,0
CORVUS BC4,2018-099K,2026-06-10T01:02:07.458432,15.12439142,.00090469,97.4073,204.2328,36.7556,323.4294,0,U,43767,999,41132,.22100328E-3,.3781E-4,0
M2 PATHFINDER,2020-037E,2026-06-10T06:19:43.667040,15.04648075,.00118519,97.8160,352.4179,168.8830,191.2660,0,U,45727,999,32445,.16065227E-3,.2197E-4,0
NETSAT-4,2020-068U,2026-06-09T23:52:22.121472,15.43626968,.00047779,97.8609,168.6585,8.4762,351.6565,0,U,46504,999,31466,.38129176E-3,.17087E-3,0
NETSAT-3,2020-068V,2026-06-10T06:07:05.381760,15.42438382,.00051999,97.8658,167.1648,26.3692,333.7817,0,U,46505,999,31461,.40267076E-3,.17346E-3,0
NETSAT-1,2020-068W,2026-06-09T23:06:14.629248,15.34472881,.00058708,97.8747,161.2655,52.9556,307.2221,0,U,46506,999,31419,.38055042E-3,.12632E-3,0
NETSAT-2,2020-068X,2026-06-09T23:30:53.836992,15.45689051,.00044467,97.8624,168.5112,45.3806,314.7803,0,U,46507,999,31462,.48022016E-3,.23125E-3,0
GREENCUBE (IO-117),2022-080E,2026-06-01T11:09:37.753056,6.42583280,.00088692,70.1435,303.7143,293.3663,66.6064,0,U,53109,999,9105,0,-.3E-7,0
SITRO-AIS 5 (KATYS),2023-091L,2026-06-10T06:22:16.307328,15.29296272,.00127393,97.5065,225.0995,124.8328,235.4112,0,U,57176,999,16328,.41731974E-3,.11817E-3,0
SITRO-AIS 6 (CHIRKIN),2023-091AC,2026-06-10T07:03:29.166048,15.25803173,.00130343,97.5074,224.2841,127.7719,232.4702,0,U,57192,999,16323,.3606475E-3,.9169E-4,0
SITRO-AIS 8 (ANOKHIN),2023-091AD,2026-06-10T07:04:07.084416,15.31945649,.00118668,97.5062,226.6897,121.0362,239.2046,0,U,57193,999,16339,.44106823E-3,.13563E-3,0
SITRO-AIS 7 (FARTUSHNIY),2023-091AE,2026-06-10T07:05:59.989344,15.25492911,.00128441,97.5071,224.1142,128.5752,231.6639,0,U,57194,999,16322,.34845801E-3,.8773E-4,0
SITRO-AIS 10 (BURDAEV),2023-091AK,2026-06-10T06:57:24.609024,15.38347184,.000787,97.5086,231.6684,100.5950,259.6181,0,U,57199,999,16370,.49374641E-3,.18622E-3,0
SITRO-AIS 9 (SHCHUKIN),2023-091AM,2026-06-10T05:58:35.819616,15.37866358,.0008114,97.5083,231.3621,100.8596,259.3562,0,U,57201,999,16368,.4969193E-3,.18452E-3,0
SITRO-AIS 12 (SMIRENNIY),2023-091AQ,2026-06-10T07:20:39.385824,15.38157033,.00076983,97.5096,231.8832,95.8671,264.3451,0,U,57204,999,16371,.47182098E-3,.17678E-3,0
SITRO-AIS 11 (SHEFFER),2023-091AU,2026-06-10T06:09:02.746656,15.38576248,.00075934,97.5094,232.0743,95.7032,264.5078,0,U,57208,999,16372,.50399155E-3,.19152E-3,0
SITRO-AIS 25,2024-039R,2026-06-10T06:34:54.347232,14.93477837,.01443374,95.3913,230.3420,353.1185,6.8055,0,U,59066,999,12369,.23169693E-3,.2957E-4,0
SITRO-AIS 26,2024-039S,2026-06-10T06:35:31.593408,14.93274831,.01446917,95.3914,230.2414,353.6918,6.2480,0,U,59067,999,12368,.23064183E-3,.293E-4,0
SITRO-AIS 27,2024-039T,2026-06-10T07:31:55.897824,14.93691373,.01437408,95.3914,230.5369,352.1257,7.7711,0,U,59068,999,12371,.20821888E-3,.2664E-4,0
SITRO-AIS 28,2024-039U,2026-06-10T06:59:40.169760,14.93727056,.01436212,95.3918,230.5683,352.0999,7.7963,0,U,59071,999,12371,.18483041E-3,.2363E-4,0
GRBBETA,2024-128C,2026-06-09T22:03:58.603392,15.06591708,.00416371,61.9897,241.7642,133.0874,227.3716,0,U,60237,999,10517,.23646408E-3,.3367E-4,0
OOV-CUBE (TUBSAT-30),2024-128F,2026-06-09T14:28:22.072800,15.02742005,.00455733,61.9950,252.0179,132.0593,228.4390,0,U,60240,999,10497,.17320396E-3,.2162E-4,0
ROBUSTA-3A (MEDITERRANEE),2024-128J,2026-06-09T22:11:28.429440,15.11591005,.00421538,61.9859,233.9251,126.7066,233.7914,0,U,60243,999,10532,.38200267E-3,.6433E-4,0
LASARSAT,2024-247Q,2026-06-09T19:18:52.108128,15.45910909,.0008391,44.9750,303.6854,290.3514,69.6474,0,U,62391,999,8217,.71316E-3,.35312E-3,0
CROCUBE,2024-247T,2026-06-10T06:19:06.372480,15.47769035,.00082369,44.9722,298.5557,296.7066,63.2981,0,U,62394,999,8227,.72705979E-3,.38432E-3,0
FORESAIL-1 PRIME,2025-276DS,2026-06-10T03:27:30.040416,15.18638120,.00038044,97.4201,234.5441,117.9504,242.2116,0,U,66778,999,2933,.2291381E-3,.4678E-4,0
KNACKSAT-2,1998-067XZ,2026-06-09T17:25:01.274016,15.59295239,.0010077,51.6308,331.9912,182.3472,177.7476,0,U,67683,999,1911,.58122E-3,.46495E-3,0
