SIRION PATHFINDER-2     
1 43759U 18099B   26161.04624585  .00003826  00000+0  21132-3 0  9995
2 43759  97.4257 210.2733 0007716 334.0857  25.9987 15.14486025411544
CORVUS BC4              
1 43767U 18099K   26161.04314188  .00003781  00000+0  22100-3 0  9995
2 43767  97.4073 204.2328 0009046  36.7556 323.4294 15.12439142411321
M2 PATHFINDER           
1 45727U 20037E   26161.26369985  .00002197  00000+0  16065-3 0  9990
2 45727  97.8160 352.4179 0011851 168.8830 191.2660 15.04648075324452
NETSAT-4                
1 46504U 20068U   26160.99470048  .00017087  00000+0  38129-3 0  9999
2 46504  97.8609 168.6585 0004777   8.4762 351.6565 15.43626968314662
NETSAT-3                
1 46505U 20068V   26161.25492340  .00017346  00000+0  40267-3 0  9993
2 46505  97.8658 167.1648 0005199  26.3692 333.7817 15.42438382314617
NETSAT-1                
1 46506U 20068W   26160.96266932  .00012632  00000+0  38055-3 0  9992
2 46506  97.8747 161.2655 0005870  52.9556 307.2221 15.34472881314191
NETSAT-2                
1 46507U 20068X   26160.97978978  .00023125  00000+0  48022-3 0  9998
2 46507  97.8624 168.5112 0004446  45.3806 314.7803 15.45689051314624
GREENCUBE (IO-117)      
1 53109U 22080E   26152.46502029 -.00000003  00000+0  00000+0 0  9996
2 53109  70.1435 303.7143 0008869 293.3663  66.6064  6.42583280 91055
SITRO-AIS 5 (KATYS)     
1 57176U 23091L   26161.26546652  .00011817  00000+0  41732-3 0  9990
2 57176  97.5065 225.0995 0012739 124.8328 235.4112 15.29296272163285
SITRO-AIS 6 (CHIRKIN)   
1 57192U 23091AC  26161.29408757  .00009169  00000+0  36065-3 0  9994
2 57192  97.5074 224.2841 0013034 127.7719 232.4702 15.25803173163236
SITRO-AIS 8 (ANOKHIN)   
1 57193U 23091AD  26161.29452644  .00013563  00000+0  44107-3 0  9998
2 57193  97.5062 226.6897 0011866 121.0362 239.2046 15.31945649163398
SITRO-AIS 7 (FARTUSHNIY)
1 57194U 23091AE  26161.29583321  .00008773  00000+0  34846-3 0  9992
2 57194  97.5071 224.1142 0012844 128.5752 231.6639 15.25492911163225
SITRO-AIS 10 (BURDAEV)  
1 57199U 23091AK  26161.28986816  .00018622  00000+0  49375-3 0  9999
2 57199  97.5086 231.6684 0007870 100.5950 259.6181 15.38347184163703
SITRO-AIS 9 (SHCHUKIN)  
1 57201U 23091AM  26161.24902569  .00018452  00000+0  49692-3 0  9995
2 57201  97.5083 231.3621 0008114 100.8596 259.3562 15.37866358163688
SITRO-AIS 12 (SMIRENNIY)
1 57204U 23091AQ  26161.30601141  .00017678  00000+0  47182-3 0  9998
2 57204  97.5096 231.8832 0007698  95.8671 264.3451 15.38157033163718
SITRO-AIS 11 (SHEFFER)  
1 57208U 23091AU  26161.25628179  .00019152  00000+0  50399-3 0  9999
2 57208  97.5094 232.0743 0007593  95.7032 264.5078 15.38576248163729
SITRO-AIS 25            
1 59066U 24039R   26161.27424013  .00002957  00000+0  23170-3 0  9991
2 59066  95.3913 230.3420 0144337 353.1185   6.8055 14.93477837123698
SITRO-AIS 26            
1 59067U 24039S   26161.27467122  .00002930  00000+0  23064-3 0  9993
2 59067  95.3914 230.2414 0144691 353.6918   6.2480 14.93274831123688
SITRO-AIS 27            
1 59068U 24039T   26161.31384141  .00002664  00000+0  20822-3 0  9991
2 59068  95.3914 230.5369 0143740 352.1257   7.7711 14.93691373123716
SITRO-AIS 28            
1 59071U 24039U   26161.29143715  .00002363  00000+0  18483-3 0  9998
2 59071  95.3918 230.5683 0143621 352.0999   7.7963 14.93727056123710
GRBBETA                 
1 60237U 24128C   26160.91942828  .00003367  00000+0  23646-3 0  9995
2 60237  61.9897 241.7642 0041637 133.0874 227.3716 15.06591708105177
OOV-CUBE (TUBSAT-30)    
1 60240U 24128F   26160.60303325  .00002162  00000+0  17320-3 0  9992
2 60240  61.9950 252.0179 0045573 132.0593 228.4390 15.02742005104972
ROBUSTA-3A (MEDITERRAN*)
1 60243U 24128J   26160.92463460  .00006433  00000+0  38200-3 0  9992
2 60243  61.9859 233.9251 0042153 126.7066 233.7914 15.11591005105321
LASARSAT                
1 62391U 24247Q   26160.80476977  .00035312  00000+0  71316-3 0  9997
2 62391  44.9750 303.6854 0008391 290.3514  69.6474 15.45910909 82173
CROCUBE                 
1 62394U 24247T   26161.26326820  .00038432  00000+0  72706-3 0  9992
2 62394  44.9722 298.5557 0008236 296.7066  63.2981 15.47769035 82275
FORESAIL-1 PRIME        
1 66778U 25276DS  26161.14409769  .00004678  00000+0  22914-3 0  9997
2 66778  97.4201 234.5441 0003804 117.9504 242.2116 15.18638120 29334
KNACKSAT-2              
1 67683U 98067XZ  26160.72570919  .00046495  00000+0  58122-3 0  9993
2 67683  51.6308 331.9912 0010077 182.3472 177.7476 15.59295239 19116
